QIANFAN-94              
1 66036U 25233D   26060.44981728  .00000041  00000+0  44709-4 0  9995
2 66036  88.9930  54.0044 0002031  88.7062 271.4322 13.50991648 18684
QIANFAN-95              
1 66037U 25233E   26059.79036503 -.01907431  00000+0 -33488+1 0  9994
2 66037  88.9924  53.6180 0004216 154.4165 205.7194 13.47545086 18848
QIANFAN-96              
1 66038U 25233F   26060.48297709  .00000056  00000+0  68370-4 0  9996
2 66038  88.9925  54.0935 0001875  94.3920 265.7445 13.51004448 18631
QIANFAN-97              
1 66039U 25233G   26060.46650302  .00000064  00000+0  80889-4 0  9995
2 66039  88.9929  54.0758 0001905  91.7192 268.4178 13.51003860 18646
QIANFAN-98              
1 66040U 25233H   26060.47468119  .00000041  00000+0  45342-4 0  9991
2 66040  88.9918  53.8175 0002440  87.4845 272.6586 13.51004308 18781
QIANFAN-99              
1 66041U 25233J   26060.47884421  .00000079  00000+0  10401-3 0  9998
2 66041  88.9928  54.0773 0002326  92.0952 268.0465 13.51003171 18641
QIANFAN-100             
1 66042U 25233K   26060.47058045  .00000040  00000+0  43415-4 0  9994
2 66042  88.9940  53.9936 0001881  91.1438 268.9928 13.50996200 18690
QIANFAN-101             
1 66043U 25233L   26060.49986623  .00000561  00000+0  22572-3 0  9997
2 66043  88.9930  52.9297 0016546 130.9626 229.3003 14.26728860 19273
QIANFAN-102             
1 66044U 25233M   26060.49099142  .00000057  00000+0  69850-4 0  9990
2 66044  88.9927  53.9887 0002064  89.3826 270.7561 13.50992248 18698
QIANFAN-103             
1 66045U 25233N   26060.49533975  .00000060  00000+0  74513-4 0  9994
2 66045  88.9930  54.0805 0001865  90.8516 269.2849 13.51005838 18644
QIANFAN-104             
1 66046U 25233P   26060.49925164  .00000044  00000+0  50161-4 0  9995
2 66046  88.9934  53.9773 0002085  86.4306 273.7084 13.51009955 18694
QIANFAN-105             
1 66047U 25233Q   26060.50733197  .00000030  00000+0  27422-4 0  9990
2 66047  88.9947  53.8052 0002000  92.6432 267.4948 13.50981235 18805
QIANFAN-106             
1 66048U 25233R   26060.50351863  .00000074  00000+0  95584-4 0  9999
2 66048  88.9916  54.0523 0002374  88.0576 272.0847 13.51005018 18650
QIANFAN-107             
1 66049U 25233S   26060.51177177  .00000051  00000+0  60328-4 0  9998
2 66049  88.9931  54.0669 0001898  90.5356 269.6013 13.51002983 18658
QIANFAN-108             
1 66050U 25233T   26060.44181786  .00000059  00000+0  73335-4 0  9993
2 66050  88.9925  54.0693 0002328  87.4489 272.6929 13.51004496 18641
